     2.10           Navigation GPS                          RINEX VERSION / TYPE
OSPtoRINEX V2.0     RUNBY               20180224 135449 LCL PGM / RUN BY / DATE 
                                                            END OF HEADER       
17 18 02 24 13 59 28.0-1.206314191222E-04 3.069544618484E-12 0.000000000000E+00
    3.000000000000E+00-8.334375000000E+01 3.970522531058E-09 2.671144321163E+00
   -4.233792424202E-06 1.235313981306E-02 4.710629582405E-06 5.153769012451E+03
    5.687680000000E+05 1.210719347000E-07-2.000324657871E+00-4.470348358154E-08
    9.819592656078E-01 2.972812500000E+02-1.787772902843E+00-7.848898366693E-09
   -1.078616357272E-10 0.000000000000E+00 1.989000000000E+03 0.000000000000E+00
    2.000000000000E+00 0.000000000000E+00-1.117587089539E-08 3.000000000000E+00
    5.645630000000E+05 4.000000000000E+00                                      
12 18 02 24 13 59 44.0 3.485963679850E-04-2.046363078989E-12 0.000000000000E+00
    5.400000000000E+01 6.612500000000E+01 4.078741324519E-09-6.712447521754E-01
    3.462657332420E-06 6.983078550547E-03 5.031004548073E-06 5.153638677597E+03
    5.687840000000E+05-2.793967723846E-08-3.034587013290E+00 1.527369022369E-07
    9.876620318823E-01 2.957187500000E+02 9.262546250116E-01-8.139267604595E-09
    5.678807973718E-11 0.000000000000E+00 1.989000000000E+03 0.000000000000E+00
    2.000000000000E+00 0.000000000000E+00-1.257285475731E-08 5.400000000000E+01
    5.645630000000E+05 4.000000000000E+00                                      
30 18 02 24 13 59 44.0 1.006037928164E-04-3.524291969370E-12 0.000000000000E+00
    3.000000000000E+00 7.553125000000E+01 4.718410826464E-09 9.727187786701E-02
    3.676861524582E-06 3.062460338697E-03 9.786337614059E-06 5.153775272369E+03
    5.687840000000E+05 2.980232238770E-08 2.193337295748E+00 9.313225746155E-09
    9.449115645252E-01 1.801875000000E+02-3.133973340283E+00-8.204627469952E-09
   -3.157274370293E-10 0.000000000000E+00 1.989000000000E+03 0.000000000000E+00
    2.000000000000E+00 0.000000000000E+00 3.725290298462E-09 3.000000000000E+00
    5.645630000000E+05 4.000000000000E+00                                      
05 18 02 24 14 00  0.0-1.352606341243E-05 9.094947017729E-13 0.000000000000E+00
    7.600000000000E+01-1.625000000000E+00 5.112355807283E-09-2.702149456674E+00
   -2.346932888031E-07 5.280634039082E-03 8.281320333481E-06 5.153643918991E+03
    5.688000000000E+05 9.313225746155E-09 2.529190498365E-02-1.545995473862E-07
    9.480005570112E-01 2.140625000000E+02 6.202192111682E-01-8.166054434659E-09
    3.735869899691E-10 0.000000000000E+00 1.989000000000E+03 0.000000000000E+00
    2.000000000000E+00 0.000000000000E+00-1.071020960808E-08 7.600000000000E+01
    5.645630000000E+05 4.000000000000E+00                                      
13 18 02 24 14 00  0.0-9.560724720359E-05 0.000000000000E+00 0.000000000000E+00
    4.500000000000E+01 1.031250000000E+00 4.677337687032E-09 1.336304691940E+00
   -2.421438694000E-08 3.669842728414E-03 8.441507816315E-06 5.153652544022E+03
    5.688000000000E+05-4.097819328308E-08 1.210345942898E+00-1.210719347000E-07
    9.685013540832E-01 2.207500000000E+02 1.624171533675E+00-8.012476608955E-09
   -3.635865734116E-10 0.000000000000E+00 1.989000000000E+03 0.000000000000E+00
    2.000000000000E+00 0.000000000000E+00-1.117587089539E-08 4.500000000000E+01
    5.645630000000E+05 4.000000000000E+00                                      
15 18 02 24 14 00  0.0-3.568255342543E-04 2.273736754432E-13 0.000000000000E+00
    8.500000000000E+01-8.937500000000E+00 5.708809223390E-09 1.924981133499E+00
   -4.880130290985E-07 1.016581559088E-02 7.489696145058E-06 5.153688634872E+03
    5.688000000000E+05-2.589076757431E-07 1.011538647011E+00-3.166496753693E-08
    9.283736794044E-01 2.220000000000E+02 6.696912677637E-01-8.552856260794E-09
   -2.817974522807E-10 0.000000000000E+00 1.989000000000E+03 0.000000000000E+00
    2.000000000000E+00 0.000000000000E+00-1.071020960808E-08 8.500000000000E+01
    5.645630000000E+05 4.000000000000E+00                                      
19 18 02 24 14 00  0.0-4.549063742161E-04 2.614797267597E-12 0.000000000000E+00
    6.800000000000E+01-7.678125000000E+01 4.156244552840E-09-5.789506549558E-01
   -3.743916749954E-06 9.723421419039E-03 5.403533577919E-06 5.153702180862E+03
    5.688000000000E+05-5.587935447693E-09-1.953119935582E+00 1.676380634308E-07
    9.793862882158E-01 2.874687500000E+02 1.126529998691E+00-8.265701442500E-09
   -2.571535686212E-11 0.000000000000E+00 1.989000000000E+03 0.000000000000E+00
    2.000000000000E+00 0.000000000000E+00-1.536682248116E-08 6.800000000000E+01
    5.645630000000E+05 4.000000000000E+00                                      
20 18 02 24 14 00  0.0 5.016927607358E-04 9.094947017729E-13 0.000000000000E+00
    7.800000000000E+01-3.843750000000E+00 5.509872365443E-09 1.602292512703E+00
   -2.440065145493E-07 4.419782664627E-03 8.169561624527E-06 5.153784683228E+03
    5.688000000000E+05 3.911554813385E-08-6.055112727178E-02-1.192092895508E-07
    9.283701084214E-01 2.044687500000E+02 1.793950845391E+00-8.391063807203E-09
    3.757299363743E-10 0.000000000000E+00 1.989000000000E+03 0.000000000000E+00
    2.000000000000E+00 0.000000000000E+00-8.381903171539E-09 7.800000000000E+01
    5.645630000000E+05 4.000000000000E+00                                      
24 18 02 24 14 00  0.0-4.648137837648E-05-5.684341886081E-13 0.000000000000E+00
    1.050000000000E+02 5.753125000000E+01 4.881274753258E-09 8.454905020046E-01
    3.213062882423E-06 6.831870065071E-03 9.972602128983E-06 5.153660932541E+03
    5.688000000000E+05-6.332993507385E-08 2.100233296358E+00 1.154839992523E-07
    9.422851569762E-01 1.747500000000E+02 5.314468346767E-01-8.247486398056E-09
   -3.760870941085E-10 1.000000000000E+00 1.989000000000E+03 0.000000000000E+00
    2.800000000000E+00 0.000000000000E+00 2.793967723846E-09 1.050000000000E+02
    5.645630000000E+05 4.000000000000E+00                                      
28 18 02 24 14 00  0.0 6.916671991348E-04 3.410605131648E-12 0.000000000000E+00
    1.700000000000E+02 7.337500000000E+01 3.894090775940E-09-2.617653014178E+00
    3.755092620850E-06 1.969725941308E-02 4.213303327560E-06 5.153674924850E+03
    5.688000000000E+05 1.881271600723E-07-3.011394261161E+00 5.587935447693E-09
    9.869549216512E-01 3.115312500000E+02-1.525584881591E+00-7.697820645128E-09
    1.164334213479E-10 2.000000000000E+00 1.989000000000E+03 0.000000000000E+00
    4.000000000000E+00 0.000000000000E+00-1.117587089539E-08 1.700000000000E+02
    5.645630000000E+05 4.000000000000E+00                                      
